{
  "type": "FeatureCollection",
  "features": [
    {
      "type": "Feature",
      "properties": {
        "norad_id": 32197,
        "name": "FENGYUN 1C DEB",
        "group": "fengyun-1c-debris",
        "lat": -68.80860315277766,
        "lon": -68.82070981271643,
        "alt_km": 793.0261497228457,
        "timestamp": "2025-12-23T22:42:33.270675+00:00",
        "meta_object_name": "FENGYUN 1C DEB",
        "meta_object_id": "1999-025CUT",
        "meta_epoch": "2025-12-21T14:37:07.256064",
        "meta_mean_motion": 14.3268413,
        "meta_eccentricity": 0.0161343,
        "meta_inclination": 98.9021,
        "meta_ra_of_asc_node": 264.9335,
        "meta_arg_of_pericenter": 203.7564,
        "meta_mean_anomaly": 276.5587,
        "meta_ephemeris_type": 0,
        "meta_classification_type": "U",
        "meta_norad_cat_id": 32197,
        "meta_element_set_no": 999,
        "meta_rev_at_epoch": 94550,
        "meta_bstar": 0.00025366,
        "meta_mean_motion_dot": 7.46e-06,
        "meta_mean_motion_ddot": 0,
        "tle_line1": "1 32197U 99025CUT 25355.60911176  .00000746  00000+0  25366-3 0  9999",
        "tle_line2": "2 32197  98.9021 264.9335 0161343 203.7564 276.5587 14.32684130945505"
      },
      "geometry": {
        "type": "Point",
        "coordinates": [
          -68.82070981271643,
          -68.80860315277766
        ]
      }
    },
    {
      "type": "Feature",
      "properties": {
        "norad_id": 32198,
        "name": "FENGYUN 1C DEB",
        "group": "fengyun-1c-debris",
        "lat": 51.34312960272972,
        "lon": 133.43542029392722,
        "alt_km": 919.1734033476241,
        "timestamp": "2025-12-23T22:42:33.270685+00:00",
        "meta_object_name": "FENGYUN 1C DEB",
        "meta_object_id": "1999-025CUU",
        "meta_epoch": "2025-12-17T02:50:00.320928",
        "meta_mean_motion": 14.08857661,
        "meta_eccentricity": 0.00954874,
        "meta_inclination": 98.3425,
        "meta_ra_of_asc_node": 137.6834,
        "meta_arg_of_pericenter": 279.8444,
        "meta_mean_anomaly": 79.1957,
        "meta_ephemeris_type": 0,
        "meta_classification_type": "U",
        "meta_norad_cat_id": 32198,
        "meta_element_set_no": 999,
        "meta_rev_at_epoch": 57007,
        "meta_bstar": 0.0016058245,
        "meta_mean_motion_dot": 2.853e-05,
        "meta_mean_motion_ddot": 0,
        "tle_line1": "1 32198U 99025CUU 25351.11805927  .00002853  00000+0  16058-2 0  9996",
        "tle_line2": "2 32198  98.3425 137.6834 0095487 279.8444  79.1957 14.08857661570072"
      },
      "geometry": {
        "type": "Point",
        "coordinates": [
          133.43542029392722,
          51.34312960272972
        ]
      }
    },
    {
      "type": "Feature",
      "properties": {
        "norad_id": 32200,
        "name": "FENGYUN 1C DEB",
        "group": "fengyun-1c-debris",
        "lat": -59.413351139042106,
        "lon": -148.41248355553,
        "alt_km": 819.3818198153767,
        "timestamp": "2025-12-23T22:42:33.270697+00:00",
        "meta_object_name": "FENGYUN 1C DEB",
        "meta_object_id": "1999-025CUW",
        "meta_epoch": "2025-12-18T14:21:34.309728",
        "meta_mean_motion": 14.15720685,
        "meta_eccentricity": 0.00398559,
        "meta_inclination": 98.7904,
        "meta_ra_of_asc_node": 41.4894,
        "meta_arg_of_pericenter": 272.8163,
        "meta_mean_anomaly": 86.845,
        "meta_ephemeris_type": 0,
        "meta_classification_type": "U",
        "meta_norad_cat_id": 32200,
        "meta_element_set_no": 999,
        "meta_rev_at_epoch": 94446,
        "meta_bstar": 0.00076515911,
        "meta_mean_motion_dot": 1.469e-05,
        "meta_mean_motion_ddot": 0,
        "tle_line1": "1 32200U 99025CUW 25352.59831377  .00001469  00000+0  76516-3 0  9999",
        "tle_line2": "2 32200  98.7904  41.4894 0039855 272.8163  86.8450 14.15720685944462"
      },
      "geometry": {
        "type": "Point",
        "coordinates": [
          -148.41248355553,
          -59.413351139042106
        ]
      }
    },
    {
      "type": "Feature",
      "properties": {
        "norad_id": 32203,
        "name": "FENGYUN 1C DEB",
        "group": "fengyun-1c-debris",
        "lat": 50.5715014964834,
        "lon": -119.61860196469547,
        "alt_km": 339.6366368203426,
        "timestamp": "2025-12-23T22:42:33.270708+00:00",
        "meta_object_name": "FENGYUN 1C DEB",
        "meta_object_id": "1999-025CUZ",
        "meta_epoch": "2025-12-23T03:48:04.304160",
        "meta_mean_motion": 15.41677361,
        "meta_eccentricity": 0.01419818,
        "meta_inclination": 97.0152,
        "meta_ra_of_asc_node": 248.2369,
        "meta_arg_of_pericenter": 54.4931,
        "meta_mean_anomaly": 306.9465,
        "meta_ephemeris_type": 0,
        "meta_classification_type": "U",
        "meta_norad_cat_id": 32203,
        "meta_element_set_no": 999,
        "meta_rev_at_epoch": 75258,
        "meta_bstar": 0.00076632458,
        "meta_mean_motion_dot": 0.00046811,
        "meta_mean_motion_ddot": 0,
        "tle_line1": "1 32203U 99025CUZ 25357.15838315  .00046811  00000+0  76632-3 0  9997",
        "tle_line2": "2 32203  97.0152 248.2369 0141981  54.4931 306.9465 15.41677361752581"
      },
      "geometry": {
        "type": "Point",
        "coordinates": [
          -119.61860196469547,
          50.5715014964834
        ]
      }
    },
    {
      "type": "Feature",
      "properties": {
        "norad_id": 32205,
        "name": "FENGYUN 1C DEB",
        "group": "fengyun-1c-debris",
        "lat": 38.5541264667179,
        "lon": -171.4905431356969,
        "alt_km": 846.3622007824706,
        "timestamp": "2025-12-23T22:42:33.270718+00:00",
        "meta_object_name": "FENGYUN 1C DEB",
        "meta_object_id": "1999-025CVB",
        "meta_epoch": "2025-12-18T23:17:52.577952",
        "meta_mean_motion": 14.13915552,
        "meta_eccentricity": 0.0009966,
        "meta_inclination": 98.6782,
        "meta_ra_of_asc_node": 356.6881,
        "meta_arg_of_pericenter": 272.3961,
        "meta_mean_anomaly": 117.0871,
        "meta_ephemeris_type": 0,
        "meta_classification_type": "U",
        "meta_norad_cat_id": 32205,
        "meta_element_set_no": 999,
        "meta_rev_at_epoch": 94586,
        "meta_bstar": 0.00014442798,
        "meta_mean_motion_dot": 2.31e-06,
        "meta_mean_motion_ddot": 0,
        "tle_line1": "1 32205U 99025CVB 25352.97074743  .00000231  00000+0  14443-3 0  9999",
        "tle_line2": "2 32205  98.6782 356.6881 0009966 272.3961 117.0871 14.13915552945864"
      },
      "geometry": {
        "type": "Point",
        "coordinates": [
          -171.4905431356969,
          38.5541264667179
        ]
      }
    },
    {
      "type": "Feature",
      "properties": {
        "norad_id": 32207,
        "name": "FENGYUN 1C DEB",
        "group": "fengyun-1c-debris",
        "lat": -9.127928827198017,
        "lon": 136.93128223529382,
        "alt_km": 756.5169769736258,
        "timestamp": "2025-12-23T22:42:33.270728+00:00",
        "meta_object_name": "FENGYUN 1C DEB",
        "meta_object_id": "1999-025CVD",
        "meta_epoch": "2025-12-12T04:00:31.760928",
        "meta_mean_motion": 14.39569701,
        "meta_eccentricity": 0.00852472,
        "meta_inclination": 99.8553,
        "meta_ra_of_asc_node": 305.0027,
        "meta_arg_of_pericenter": 139.3042,
        "meta_mean_anomaly": 236.8167,
        "meta_ephemeris_type": 0,
        "meta_classification_type": "U",
        "meta_norad_cat_id": 32207,
        "meta_element_set_no": 999,
        "meta_rev_at_epoch": 64299,
        "meta_bstar": 0.00048704631,
        "meta_mean_motion_dot": 1.529e-05,
        "meta_mean_motion_ddot": 0,
        "tle_line1": "1 32207U 99025CVD 25346.16703427  .00001529  00000+0  48705-3 0  9992",
        "tle_line2": "2 32207  99.8553 305.0027 0085247 139.3042 236.8167 14.39569701642998"
      },
      "geometry": {
        "type": "Point",
        "coordinates": [
          136.93128223529382,
          -9.127928827198017
        ]
      }
    },
    {
      "type": "Feature",
      "properties": {
        "norad_id": 32209,
        "name": "FENGYUN 1C DEB",
        "group": "fengyun-1c-debris",
        "lat": -64.58917637714337,
        "lon": -34.81860890488752,
        "alt_km": 972.5639435916764,
        "timestamp": "2025-12-23T22:42:33.270740+00:00",
        "meta_object_name": "FENGYUN 1C DEB",
        "meta_object_id": "1999-025CVF",
        "meta_epoch": "2025-12-16T19:55:00.323040",
        "meta_mean_motion": 13.47189962,
        "meta_eccentricity": 0.0333308,
        "meta_inclination": 99.4209,
        "meta_ra_of_asc_node": 298.0158,
        "meta_arg_of_pericenter": 15.1266,
        "meta_mean_anomaly": 345.9549,
        "meta_ephemeris_type": 0,
        "meta_classification_type": "U",
        "meta_norad_cat_id": 32209,
        "meta_element_set_no": 999,
        "meta_rev_at_epoch": 90031,
        "meta_bstar": 0.0022098107,
        "meta_mean_motion_dot": 1.847e-05,
        "meta_mean_motion_ddot": 0,
        "tle_line1": "1 32209U 99025CVF 25350.82986485  .00001847  00000+0  22098-2 0  9998",
        "tle_line2": "2 32209  99.4209 298.0158 0333308  15.1266 345.9549 13.47189962900317"
      },
      "geometry": {
        "type": "Point",
        "coordinates": [
          -34.81860890488752,
          -64.58917637714337
        ]
      }
    }
  ]
}